start=new Date('2021-08-25T00:00:00.000Z').valueOf();
sats=[{"MEAN_ANOMALY":"346.5329","CENTER_NAME":"EARTH","LAUNCH_DATE":"2021-03-24","REF_FRAME":"TEME","TLE_LINE1":"1 47987U 21024L   21236.52917602  .00021590  00000-0  15772-3 0  9992","ARG_OF_PERICENTER":"13.5800","EPHEMERIS_TYPE":"0","MEAN_ELEMENT_THEORY":"SGP4","MEAN_MOTION":"15.73210029","DECAY_DATE":null,"ECCENTRICITY":"0.00041390","OBJECT_TYPE":"PAYLOAD","REV_AT_EPOCH":"2490","RCS_SIZE":"LARGE","SITE":"AFETR","BSTAR":"0.00015772000000","NORAD_CAT_ID":"47987","MEAN_MOTION_DOT":"0.00021590","FILE":"3102530","OBJECT_ID":"2021-024L","INCLINATION":"53.0464","TIME_SYSTEM":"UTC","SEMIMAJOR_AXIS":"6727.867","GP_ID":"183364328","CLASSIFICATION_TYPE":"U","MEAN_MOTION_DDOT":"0.0000000000000","OBJECT_NAME":"STARLINK-2311","COUNTRY_CODE":"US","PERIAPSIS":"346.947","TLE_LINE2":"2 47987  53.0464 163.2492 0004139  13.5800 346.5329 15.73210029 24907","APOAPSIS":"352.516","RA_OF_ASC_NODE":"163.2492","EPOCH":"2021-08-24T12:42:00.808128","PERIOD":"91.533","ELEMENT_SET_NO":"999"},{"OBJECT_NAME":"STARLINK-2306","MEAN_MOTION_DDOT":"0.0000000000000","COUNTRY_CODE":"US","PERIAPSIS":"546.100","TLE_LINE2":"2 47988  53.0561 193.9414 0001589  62.5253 297.5897 15.06404343 24974","APOAPSIS":"548.301","RA_OF_ASC_NODE":"193.9414","PERIOD":"95.592","EPOCH":"2021-08-24T20:21:27.764064","ELEMENT_SET_NO":"999","MEAN_ANOMALY":"297.5897","LAUNCH_DATE":"2021-03-24","CENTER_NAME":"EARTH","REF_FRAME":"TEME","TLE_LINE1":"1 47988U 21024M   21236.84823801  .00000431  00000-0  47806-4 0  9990","ARG_OF_PERICENTER":"62.5253","EPHEMERIS_TYPE":"0","MEAN_ELEMENT_THEORY":"SGP4","MEAN_MOTION":"15.06404343","DECAY_DATE":null,"OBJECT_TYPE":"PAYLOAD","ECCENTRICITY":"0.00015890","RCS_SIZE":"LARGE","REV_AT_EPOCH":"2497","SITE":"AFETR","BSTAR":"0.00004780600000","MEAN_MOTION_DOT":"0.00000431","NORAD_CAT_ID":"47988","FILE":"3102580","OBJECT_ID":"2021-024M","TIME_SYSTEM":"UTC","INCLINATION":"53.0561","GP_ID":"183387079","SEMIMAJOR_AXIS":"6925.335","CLASSIFICATION_TYPE":"U"},{"DECAY_DATE":null,"MEAN_MOTION":"15.73235899","RCS_SIZE":"LARGE","REV_AT_EPOCH":"2538","OBJECT_TYPE":"PAYLOAD","ECCENTRICITY":"0.00042140","BSTAR":"0.00018184000000","SITE":"AFETR","MEAN_MOTION_DOT":"0.00025026","NORAD_CAT_ID":"47989","OBJECT_ID":"2021-024N","FILE":"3102457","TIME_SYSTEM":"UTC","INCLINATION":"53.0461","CLASSIFICATION_TYPE":"U","GP_ID":"183361890","SEMIMAJOR_AXIS":"6727.793","MEAN_ANOMALY":"347.1227","LAUNCH_DATE":"2021-03-24","CENTER_NAME":"EARTH","REF_FRAME":"TEME","ARG_OF_PERICENTER":"12.9899","TLE_LINE1":"1 47989U 21024N   21236.52894763  .00025026  00000-0  18184-3 0  9994","EPHEMERIS_TYPE":"0","MEAN_ELEMENT_THEORY":"SGP4","PERIAPSIS":"346.823","APOAPSIS":"352.493","TLE_LINE2":"2 47989  53.0461 163.2462 0004214  12.9899 347.1227 15.73235899 25387","RA_OF_ASC_NODE":"163.2462","ELEMENT_SET_NO":"999","PERIOD":"91.531","EPOCH":"2021-08-24T12:41:41.075232","MEAN_MOTION_DDOT":"0.0000000000000","OBJECT_NAME":"STARLINK-2305","COUNTRY_CODE":"US"},{"MEAN_MOTION_DDOT":"0.0000000000000","OBJECT_NAME":"STARLINK-2307","COUNTRY_CODE":"US","PERIAPSIS":"346.866","TLE_LINE2":"2 47990  53.0463 163.2489 0004179  13.4863 346.6266 15.73229029 25371","APOAPSIS":"352.489","RA_OF_ASC_NODE":"163.2489","EPOCH":"2021-08-24T12:41:34.120032","PERIOD":"91.531","ELEMENT_SET_NO":"999","MEAN_ANOMALY":"346.6266","CENTER_NAME":"EARTH","LAUNCH_DATE":"2021-03-24","REF_FRAME":"TEME","TLE_LINE1":"1 47990U 21024P   21236.52886713  .00027366  00000-0  19843-3 0  9994","ARG_OF_PERICENTER":"13.4863","EPHEMERIS_TYPE":"0","MEAN_ELEMENT_THEORY":"SGP4","MEAN_MOTION":"15.73229029","DECAY_DATE":null,"OBJECT_TYPE":"PAYLOAD","ECCENTRICITY":"0.00041790","RCS_SIZE":"LARGE","REV_AT_EPOCH":"2537","SITE":"AFETR","BSTAR":"0.00019843000000","NORAD_CAT_ID":"47990","MEAN_MOTION_DOT":"0.00027366","FILE":"3102457","OBJECT_ID":"2021-024P","INCLINATION":"53.0463","TIME_SYSTEM":"UTC","SEMIMAJOR_AXIS":"6727.812","GP_ID":"183361641","CLASSIFICATION_TYPE":"U"},{"MEAN_ELEMENT_THEORY":"SGP4","EPHEMERIS_TYPE":"0","ARG_OF_PERICENTER":"9.4114","TLE_LINE1":"1 47991U 21024Q   21236.52871245 -.00000177  00000-0  31941-5 0  9996","REF_FRAME":"TEME","LAUNCH_DATE":"2021-03-24","CENTER_NAME":"EARTH","MEAN_ANOMALY":"350.6979","CLASSIFICATION_TYPE":"U","SEMIMAJOR_AXIS":"6727.886","GP_ID":"183364668","TIME_SYSTEM":"UTC","INCLINATION":"53.0471","OBJECT_ID":"2021-024Q","FILE":"3102530","NORAD_CAT_ID":"47991","MEAN_MOTION_DOT":"-0.00000177","BSTAR":"0.00000319410000","SITE":"AFETR","RCS_SIZE":"LARGE","REV_AT_EPOCH":"2490","OBJECT_TYPE":"PAYLOAD","ECCENTRICITY":"0.00040350","DECAY_DATE":null,"MEAN_MOTION":"15.73203049","COUNTRY_CODE":"US","OBJECT_NAME":"STARLINK-2279","MEAN_MOTION_DDOT":"0.0000000000000","EPOCH":"2021-08-24T12:41:20.755680","PERIOD":"91.533","ELEMENT_SET_NO":"999","RA_OF_ASC_NODE":"163.2471","APOAPSIS":"352.466","TLE_LINE2":"2 47991  53.0471 163.2471 0004035   9.4114 350.6979 15.73203049 24905","PERIAPSIS":"347.037"},{"EPHEMERIS_TYPE":"0","MEAN_ELEMENT_THEORY":"SGP4","MEAN_ANOMALY":"343.8487","CENTER_NAME":"EARTH","LAUNCH_DATE":"2021-03-24","REF_FRAME":"TEME","TLE_LINE1":"1 47992U 21024R   21236.84624475 -.00002364  00000-0 -12381-4 0  9990","ARG_OF_PERICENTER":"16.2671","MEAN_MOTION_DOT":"-0.00002364","NORAD_CAT_ID":"47992","FILE":"3102580","OBJECT_ID":"2021-024R","INCLINATION":"53.0459","TIME_SYSTEM":"UTC","GP_ID":"183387579","SEMIMAJOR_AXIS":"6727.904","CLASSIFICATION_TYPE":"U","MEAN_MOTION":"15.73197039","DECAY_DATE":null,"OBJECT_TYPE":"PAYLOAD","ECCENTRICITY":"0.00043950","RCS_SIZE":"LARGE","REV_AT_EPOCH":"2543","SITE":"AFETR","BSTAR":"-0.00001238100000","COUNTRY_CODE":"US","OBJECT_NAME":"STARLINK-2229","MEAN_MOTION_DDOT":"0.0000000000000","RA_OF_ASC_NODE":"161.6714","ELEMENT_SET_NO":"999","PERIOD":"91.533","EPOCH":"2021-08-24T20:18:35.546400","PERIAPSIS":"346.812","TLE_LINE2":"2 47992  53.0459 161.6714 0004395  16.2671 343.8487 15.73197039 25435","APOAPSIS":"352.726"},{"PERIAPSIS":"545.830","APOAPSIS":"548.642","TLE_LINE2":"2 47993  53.0556 181.6120 0002030  70.6257 289.4951 15.06392624 25158","RA_OF_ASC_NODE":"181.6120","EPOCH":"2021-08-24T06:06:16.657344","PERIOD":"95.593","ELEMENT_SET_NO":"999","MEAN_MOTION_DDOT":"0.0000000000000","OBJECT_NAME":"STARLINK-2273","COUNTRY_CODE":"US","DECAY_DATE":null,"MEAN_MOTION":"15.06392624","REV_AT_EPOCH":"2515","RCS_SIZE":"LARGE","OBJECT_TYPE":"PAYLOAD","ECCENTRICITY":"0.00020300","BSTAR":"0.00005524600000","SITE":"AFETR","NORAD_CAT_ID":"47993","MEAN_MOTION_DOT":"0.00000541","OBJECT_ID":"2021-024S","FILE":"3102457","TIME_SYSTEM":"UTC","INCLINATION":"53.0556","CLASSIFICATION_TYPE":"U","GP_ID":"183361390","SEMIMAJOR_AXIS":"6925.371","MEAN_ANOMALY":"289.4951","CENTER_NAME":"EARTH","LAUNCH_DATE":"2021-03-24","REF_FRAME":"TEME","ARG_OF_PERICENTER":"70.6257","TLE_LINE1":"1 47993U 21024S   21236.25435946  .00000541  00000-0  55246-4 0  9999","EPHEMERIS_TYPE":"0","MEAN_ELEMENT_THEORY":"SGP4"},{"MEAN_ELEMENT_THEORY":"SGP4","EPHEMERIS_TYPE":"0","CENTER_NAME":"EARTH","LAUNCH_DATE":"2021-03-24","MEAN_ANOMALY":"305.8187","ARG_OF_PERICENTER":"54.2951","TLE_LINE1":"1 47994U 21024T   21236.40861741  .00000439  00000-0  51165-4 0  9995","REF_FRAME":"TEME","OBJECT_ID":"2021-024T","FILE":"3102457","MEAN_MOTION_DOT":"0.00000439","NORAD_CAT_ID":"47994","CLASSIFICATION_TYPE":"U","GP_ID":"183362142","SEMIMAJOR_AXIS":"6932.879","INCLINATION":"53.0543","TIME_SYSTEM":"UTC","DECAY_DATE":null,"MEAN_MOTION":"15.03946208","BSTAR":"0.00005116500000","SITE":"AFETR","REV_AT_EPOCH":"2491","RCS_SIZE":"LARGE","ECCENTRICITY":"0.00016140","OBJECT_TYPE":"PAYLOAD","COUNTRY_CODE":"US","MEAN_MOTION_DDOT":"0.0000000000000","OBJECT_NAME":"STARLINK-2290","EPOCH":"2021-08-24T09:48:24.544224","PERIOD":"95.748","ELEMENT_SET_NO":"999","RA_OF_ASC_NODE":"195.4098","PERIAPSIS":"553.625","APOAPSIS":"555.863","TLE_LINE2":"2 47994  53.0543 195.4098 0001614  54.2951 305.8187 15.03946208 24915"},{"COUNTRY_CODE":"US","OBJECT_NAME":"STARLINK-2309","MEAN_MOTION_DDOT":"0.0000000000000","RA_OF_ASC_NODE":"162.0517","PERIOD":"92.630","EPOCH":"2021-08-24T21:41:15.938016","ELEMENT_SET_NO":"999","APOAPSIS":"404.829","TLE_LINE2":"2 47995  53.0459 162.0517 0002074  93.3787 266.7460 15.54563982 25437","PERIAPSIS":"402.016","EPHEMERIS_TYPE":"0","MEAN_ELEMENT_THEORY":"SGP4","REF_FRAME":"TEME","ARG_OF_PERICENTER":"93.3787","TLE_LINE1":"1 47995U 21024U   21236.90365669 -.00322595  00000-0 -49924-2 0  9999","MEAN_ANOMALY":"266.7460","CENTER_NAME":"EARTH","LAUNCH_DATE":"2021-03-24","INCLINATION":"53.0459","TIME_SYSTEM":"UTC","CLASSIFICATION_TYPE":"U","SEMIMAJOR_AXIS":"6781.557","GP_ID":"183386828","MEAN_MOTION_DOT":"-0.00322595","NORAD_CAT_ID":"47995","OBJECT_ID":"2021-024U","FILE":"3102580","REV_AT_EPOCH":"2543","RCS_SIZE":"LARGE","OBJECT_TYPE":"PAYLOAD","ECCENTRICITY":"0.00020740","BSTAR":"-0.00499240000000","SITE":"AFETR","DECAY_DATE":null,"MEAN_MOTION":"15.54563982"},{"MEAN_ELEMENT_THEORY":"SGP4","EPHEMERIS_TYPE":"0","ARG_OF_PERICENTER":"21.1633","TLE_LINE1":"1 47996U 21024V   21236.52815843  .00009687  00000-0  73295-4 0  9994","REF_FRAME":"TEME","LAUNCH_DATE":"2021-03-24","CENTER_NAME":"EARTH","MEAN_ANOMALY":"338.9557","CLASSIFICATION_TYPE":"U","GP_ID":"183360650","SEMIMAJOR_AXIS":"6727.842","INCLINATION":"53.0469","TIME_SYSTEM":"UTC","OBJECT_ID":"2021-024V","FILE":"3102457","NORAD_CAT_ID":"47996","MEAN_MOTION_DOT":"0.00009687","BSTAR":"0.00007329500000","SITE":"AFETR","RCS_SIZE":"LARGE","REV_AT_EPOCH":"2543","OBJECT_TYPE":"PAYLOAD","ECCENTRICITY":"0.00041780","DECAY_DATE":null,"MEAN_MOTION":"15.73218789","COUNTRY_CODE":"US","MEAN_MOTION_DDOT":"0.0000000000000","OBJECT_NAME":"STARLINK-2260","PERIOD":"91.532","EPOCH":"2021-08-24T12:40:32.888352","ELEMENT_SET_NO":"999","RA_OF_ASC_NODE":"163.2434","APOAPSIS":"352.517","TLE_LINE2":"2 47996  53.0469 163.2434 0004178  21.1633 338.9557 15.73218789 25438","PERIAPSIS":"346.896"}];
